[{"spaceTrack":{"CCSDS_OMM_VERS":"2.0","COMMENT":"GENERATED VIA SPACE-TRACK.ORG API","CREATION_DATE":"2021-05-12T14:56:11","ORIGINATOR":"18 SPCS","OBJECT_NAME":"STARLINK-1696","OBJECT_ID":"2020-070P","CENTER_NAME":"EARTH","REF_FRAME":"TEME","TIME_SYSTEM":"UTC","MEAN_ELEMENT_THEORY":"SGP4","EPOCH":"2021-05-12T08:47:16.461600","MEAN_MOTION":15.06396232,"ECCENTRICITY":0.0000923,"INCLINATION":53.0559,"RA_OF_ASC_NODE":167.9999,"ARG_OF_PERICENTER":84.6715,"MEAN_ANOMALY":275.4379,"EPHEMERIS_TYPE":0,"CLASSIFICATION_TYPE":"U","NORAD_CAT_ID":46545,"ELEMENT_SET_NO":999,"REV_AT_EPOCH":3388,"BSTAR":0.000034225,"MEAN_MOTION_DOT":0.00000229,"MEAN_MOTION_DDOT":0,"SEMIMAJOR_AXIS":6925.36,"PERIOD":95.592,"APOAPSIS":547.864,"PERIAPSIS":546.586,"OBJECT_TYPE":"PAYLOAD","RCS_SIZE":"LARGE","COUNTRY_CODE":"US","LAUNCH_DATE":"2020-10-06","SITE":"AFETR","DECAY_DATE":null,"DECAYED":0,"FILE":3035613,"GP_ID":177116481,"TLE_LINE0":"0 STARLINK-1696","TLE_LINE1":"1 46545U 20070P   21132.36616275  .00000229  00000-0  34225-4 0  9991","TLE_LINE2":"2 46545  53.0559 167.9999 0000923  84.6715 275.4379 15.06396232 33884"},"version":"v1.0","launch":"5ef6a2090059c33cee4a828b","longitude":61.48525707036775,"latitude":43.45281047383261,"height_km":550.9970115691704,"velocity_kms":7.592084332862573,"id":"5f889669c86e27000615b2a7"},{"spaceTrack":{"CCSDS_OMM_VERS":"2.0","COMMENT":"GENERATED VIA SPACE-TRACK.ORG API","CREATION_DATE":"2021-05-12T07:56:10","ORIGINATOR":"18 SPCS","OBJECT_NAME":"STARLINK-1729","OBJECT_ID":"2020-070BD","CENTER_NAME":"EARTH","REF_FRAME":"TEME","TIME_SYSTEM":"UTC","MEAN_ELEMENT_THEORY":"SGP4","EPOCH":"2021-05-12T03:34:07.311936","MEAN_MOTION":15.0639894,"ECCENTRICITY":0.0000631,"INCLINATION":53.0561,"RA_OF_ASC_NODE":168.9738,"ARG_OF_PERICENTER":150.9802,"MEAN_ANOMALY":209.1222,"EPHEMERIS_TYPE":0,"CLASSIFICATION_TYPE":"U","NORAD_CAT_ID":46583,"ELEMENT_SET_NO":999,"REV_AT_EPOCH":3386,"BSTAR":0.000033603,"MEAN_MOTION_DOT":0.00000219,"MEAN_MOTION_DDOT":0,"SEMIMAJOR_AXIS":6925.352,"PERIOD":95.592,"APOAPSIS":547.654,"PERIAPSIS":546.78,"OBJECT_TYPE":"PAYLOAD","RCS_SIZE":"LARGE","COUNTRY_CODE":"US","LAUNCH_DATE":"2020-10-06","SITE":"AFETR","DECAY_DATE":null,"DECAYED":0,"FILE":3035384,"GP_ID":177111359,"TLE_LINE0":"0 STARLINK-1729","TLE_LINE1":"1 46583U 20070BD  21132.14869574  .00000219  00000-0  33603-4 0  9999","TLE_LINE2":"2 46583  53.0561 168.9738 0000631 150.9802 209.1222 15.06398940 33868"},"version":"v1.0","launch":"5ef6a2090059c33cee4a828b","longitude":-176.49495923186248,"latitude":16.571667607562354,"height_km":547.0126320655354,"velocity_kms":7.591371130709742,"id":"5f889669c86e27000615b2a6"},{"spaceTrack":{"CCSDS_OMM_VERS":"2.0","COMMENT":"GENERATED VIA SPACE-TRACK.ORG API","CREATION_DATE":"2021-05-12T04:44:40","ORIGINATOR":"18 SPCS","OBJECT_NAME":"STARLINK-1733","OBJECT_ID":"2020-070AJ","CENTER_NAME":"EARTH","REF_FRAME":"TEME","TIME_SYSTEM":"UTC","MEAN_ELEMENT_THEORY":"SGP4","EPOCH":"2021-05-11T11:46:41.224224","MEAN_MOTION":15.06381262,"ECCENTRICITY":0.0000884,"INCLINATION":53.0583,"RA_OF_ASC_NODE":151.9236,"ARG_OF_PERICENTER":70.6566,"MEAN_ANOMALY":289.4518,"EPHEMERIS_TYPE":0,"CLASSIFICATION_TYPE":"U","NORAD_CAT_ID":46564,"ELEMENT_SET_NO":999,"REV_AT_EPOCH":3403,"BSTAR":0.000027491,"MEAN_MOTION_DOT":0.00000128,"MEAN_MOTION_DDOT":0,"SEMIMAJOR_AXIS":6925.406,"PERIOD":95.593,"APOAPSIS":547.883,"PERIAPSIS":546.659,"OBJECT_TYPE":"PAYLOAD","RCS_SIZE":"LARGE","COUNTRY_CODE":"US","LAUNCH_DATE":"2020-10-06","SITE":"AFETR","DECAY_DATE":null,"DECAYED":0,"FILE":3035157,"GP_ID":177105640,"TLE_LINE0":"0 STARLINK-1733","TLE_LINE1":"1 46564U 20070AJ  21131.49075491  .00000128  00000-0  27491-4 0  9999","TLE_LINE2":"2 46564  53.0583 151.9236 0000884  70.6566 289.4518 15.06381262 34039"},"version":"v1.0","launch":"5ef6a2090059c33cee4a828b","longitude":139.8186707282546,"latitude":38.5289624615798,"height_km":550.1946220930731,"velocity_kms":7.591885421751399,"id":"5f889669c86e27000615b2aa"},{"spaceTrack":{"CCSDS_OMM_VERS":"2.0","COMMENT":"GENERATED VIA SPACE-TRACK.ORG API","CREATION_DATE":"2021-05-12T07:46:11","ORIGINATOR":"18 SPCS","OBJECT_NAME":"STARLINK-1714","OBJECT_ID":"2020-070AG","CENTER_NAME":"EARTH","REF_FRAME":"TEME","TIME_SYSTEM":"UTC","MEAN_ELEMENT_THEORY":"SGP4","EPOCH":"2021-05-12T06:10:41.304000","MEAN_MOTION":15.06391323,"ECCENTRICITY":0.0000605,"INCLINATION":53.0557,"RA_OF_ASC_NODE":148.4843,"ARG_OF_PERICENTER":85.7569,"MEAN_ANOMALY":274.3489,"EPHEMERIS_TYPE":0,"CLASSIFICATION_TYPE":"U","NORAD_CAT_ID":46562,"ELEMENT_SET_NO":999,"REV_AT_EPOCH":3384,"BSTAR":0.00013947,"MEAN_MOTION_DOT":0.00001796,"MEAN_MOTION_DDOT":0,"SEMIMAJOR_AXIS":6925.375,"PERIOD":95.593,"APOAPSIS":547.659,"PERIAPSIS":546.821,"OBJECT_TYPE":"PAYLOAD","RCS_SIZE":"LARGE","COUNTRY_CODE":"US","LAUNCH_DATE":"2020-10-06","SITE":"AFETR","DECAY_DATE":null,"DECAYED":0,"FILE":3035341,"GP_ID":177109884,"TLE_LINE0":"0 STARLINK-1714","TLE_LINE1":"1 46562U 20070AG  21132.25742250  .00001796  00000-0  13947-3 0  9998","TLE_LINE2":"2 46562  53.0557 148.4843 0000605  85.7569 274.3489 15.06391323 33841"},"version":"v1.0","launch":"5ef6a2090059c33cee4a828b","longitude":-63.709572025951296,"latitude":-49.20650801426187,"height_km":564.5375196160294,"velocity_kms":7.578554239921988,"id":"5f889669c86e27000615b2b1"},{"spaceTrack":{"CCSDS_OMM_VERS":"2.0","COMMENT":"GENERATED VIA SPACE-TRACK.ORG API","CREATION_DATE":"2021-05-12T04:44:40","ORIGINATOR":"18 SPCS","OBJECT_NAME":"STARLINK-1671","OBJECT_ID":"2020-070Y","CENTER_NAME":"EARTH","REF_FRAME":"TEME","TIME_SYSTEM":"UTC","MEAN_ELEMENT_THEORY":"SGP4","EPOCH":"2021-05-11T10:50:17.759616","MEAN_MOTION":15.06387649,"ECCENTRICITY":0.0000823,"INCLINATION":53.0568,"RA_OF_ASC_NODE":157.1045,"ARG_OF_PERICENTER":81.8521,"MEAN_ANOMALY":278.2561,"EPHEMERIS_TYPE":0,"CLASSIFICATION_TYPE":"U","NORAD_CAT_ID":46554,"ELEMENT_SET_NO":999,"REV_AT_EPOCH":3395,"BSTAR":0.000049527,"MEAN_MOTION_DOT":0.00000456,"MEAN_MOTION_DDOT":0,"SEMIMAJOR_AXIS":6925.386,"PERIOD":95.593,"APOAPSIS":547.821,"PERIAPSIS":546.681,"OBJECT_TYPE":"PAYLOAD","RCS_SIZE":"LARGE","COUNTRY_CODE":"US","LAUNCH_DATE":"2020-10-06","SITE":"AFETR","DECAY_DATE":null,"DECAYED":0,"FILE":3035157,"GP_ID":177104137,"TLE_LINE0":"0 STARLINK-1671","TLE_LINE1":"1 46554U 20070Y   21131.45159444  .00000456  00000-0  49527-4 0  9993","TLE_LINE2":"2 46554  53.0568 157.1045 0000823  81.8521 278.2561 15.06387649 33954"},"version":"v1.0","launch":"5ef6a2090059c33cee4a828b","longitude":-10.045254115283095,"latitude":-14.818893211765207,"height_km":551.3420877203334,"velocity_kms":7.586436421683552,"id":"5f889669c86e27000615b2b6"},{"spaceTrack":{"CCSDS_OMM_VERS":"2.0","COMMENT":"GENERATED VIA SPACE-TRACK.ORG API","CREATION_DATE":"2021-05-12T14:56:11","ORIGINATOR":"18 SPCS","OBJECT_NAME":"STARLINK-1700","OBJECT_ID":"2020-070T","CENTER_NAME":"EARTH","REF_FRAME":"TEME","TIME_SYSTEM":"UTC","MEAN_ELEMENT_THEORY":"SGP4","EPOCH":"2021-05-12T10:05:32.379360","MEAN_MOTION":15.06399475,"ECCENTRICITY":0.0000382,"INCLINATION":53.0564,"RA_OF_ASC_NODE":167.7545,"ARG_OF_PERICENTER":149.5271,"MEAN_ANOMALY":210.574,"EPHEMERIS_TYPE":0,"CLASSIFICATION_TYPE":"U","NORAD_CAT_ID":46549,"ELEMENT_SET_NO":999,"REV_AT_EPOCH":3359,"BSTAR":0.000049546,"MEAN_MOTION_DOT":0.00000457,"MEAN_MOTION_DDOT":0,"SEMIMAJOR_AXIS":6925.35,"PERIOD":95.592,"APOAPSIS":547.48,"PERIAPSIS":546.951,"OBJECT_TYPE":"PAYLOAD","RCS_SIZE":"LARGE","COUNTRY_CODE":"US","LAUNCH_DATE":"2020-10-06","SITE":"AFETR","DECAY_DATE":null,"DECAYED":0,"FILE":3035578,"GP_ID":177115658,"TLE_LINE0":"0 STARLINK-1700","TLE_LINE1":"1 46549U 20070T   21132.42051365  .00000457  00000-0  49546-4 0  9990","TLE_LINE2":"2 46549  53.0564 167.7545 0000382 149.5271 210.5740 15.06399475 33598"},"version":"v1.0","launch":"5ef6a2090059c33cee4a828b","longitude":154.9411364421286,"latitude":41.497993889901515,"height_km":550.8902614259632,"velocity_kms":7.591754694523949,"id":"5f889669c86e27000615b2b4"},{"spaceTrack":{"CCSDS_OMM_VERS":"2.0","COMMENT":"GENERATED VIA SPACE-TRACK.ORG API","CREATION_DATE":"2021-05-12T07:56:10","ORIGINATOR":"18 SPCS","OBJECT_NAME":"STARLINK-1685","OBJECT_ID":"2020-070J","CENTER_NAME":"EARTH","REF_FRAME":"TEME","TIME_SYSTEM":"UTC","MEAN_ELEMENT_THEORY":"SGP4","EPOCH":"2021-05-12T04:42:27.109440","MEAN_MOTION":15.06383458,"ECCENTRICITY":0.000265,"INCLINATION":53.0567,"RA_OF_ASC_NODE":153.763,"ARG_OF_PERICENTER":304.6696,"MEAN_ANOMALY":55.4043,"EPHEMERIS_TYPE":0,"CLASSIFICATION_TYPE":"U","NORAD_CAT_ID":46540,"ELEMENT_SET_NO":999,"REV_AT_EPOCH":3407,"BSTAR":0.000075201,"MEAN_MOTION_DOT":0.00000838,"MEAN_MOTION_DDOT":0,"SEMIMAJOR_AXIS":6925.399,"PERIOD":95.593,"APOAPSIS":549.099,"PERIAPSIS":545.429,"OBJECT_TYPE":"PAYLOAD","RCS_SIZE":"LARGE","COUNTRY_CODE":"US","LAUNCH_DATE":"2020-10-06","SITE":"AFETR","DECAY_DATE":null,"DECAYED":0,"FILE":3035378,"GP_ID":177111323,"TLE_LINE0":"0 STARLINK-1685","TLE_LINE1":"1 46540U 20070J   21132.19614710  .00000838  00000-0  75201-4 0  9994","TLE_LINE2":"2 46540  53.0567 153.7630 0002650 304.6696  55.4043 15.06383458 34077"},"version":"v1.0","launch":"5ef6a2090059c33cee4a828b","longitude":-102.50389983808209,"latitude":-52.39069630731655,"height_km":564.1302260480561,"velocity_kms":7.5797205652994855,"id":"5f88966ac86e27000615b2c3"}]